$$SOE
2461302.500000000, A.D. 2026-Sep-19 00:00:00.0000, -3.080039484444997E+08, 3.656025740970422E+08, -3.403806767856866E+06,
2461309.500000000, A.D. 2026-Sep-26 00:00:00.0000, -3.149932083449557E+08, 3.583525847758765E+08, -3.278527145877421E+06,
2461316.500000000, A.D. 2026-Oct-03 00:00:00.0000, -3.218419546597455E+08, 3.509427452632657E+08, -3.151764362228006E+06,
2461323.500000000, A.D. 2026-Oct-10 00:00:00.0000, -3.285462691943037E+08, 3.433754344330340E+08, -3.023566894838050E+06,
2461330.500000000, A.D. 2026-Oct-17 00:00:00.0000, -3.351022541555940E+08, 3.356531326612014E+08, -2.893984515943214E+06,
2461337.500000000, A.D. 2026-Oct-24 00:00:00.0000, -3.415060349686689E+08, 3.277784227922693E+08, -2.763068293645248E+06,
2461344.500000000, A.D. 2026-Oct-31 00:00:00.0000, -3.477537630958669E+08, 3.197539908812848E+08, -2.630870614091396E+06,
2461351.500000000, A.D. 2026-Nov-07 00:00:00.0000, -3.538416185190390E+08, 3.115826267802643E+08, -2.497445249090672E+06,
2461358.500000000, A.D. 2026-Nov-14 00:00:00.0000, -3.597658116833729E+08, 3.032672254505323E+08, -2.362847414803818E+06,
2461365.500000000, A.D. 2026-Nov-21 00:00:00.0000, -3.655225867147279E+08, 2.948107896772951E+08, -2.227133599419385E+06,
2461372.500000000, A.D. 2026-Nov-28 00:00:00.0000, -3.711082269083565E+08, 2.862164311740662E+08, -2.090361313959822E+06,
2461379.500000000, A.D. 2026-Dec-05 00:00:00.0000, -3.765190588664368E+08, 2.774873694149017E+08, -1.952589151382998E+06,
2461386.500000000, A.D. 2026-Dec-12 00:00:00.0000, -3.817514551172557E+08, 2.686269312975299E+08, -1.813876914346591E+06,
2461393.500000000, A.D. 2026-Dec-19 00:00:00.0000, -3.868018371033043E+08, 2.596385516379694E+08, -1.674285637886152E+06,
2461400.500000000, A.D. 2026-Dec-26 00:00:00.0000, -3.916666786790617E+08, 2.505257736240661E+08, -1.533877564780161E+06,
2461407.500000000, A.D. 2027-Jan-02 00:00:00.0000, -3.963425098391781E+08, 2.412922490314974E+08, -1.392716114263833E+06,
2461414.500000000, A.D. 2027-Jan-09 00:00:00.0000, -4.008259205560526E+08, 2.319417382157359E+08, -1.250865852879703E+06,
2461421.500000000, A.D. 2027-Jan-16 00:00:00.0000, -4.051135646875491E+08, 2.224781098811620E+08, -1.108392469698727E+06,
2461428.500000000, A.D. 2027-Jan-23 00:00:00.0000, -4.092021639058101E+08, 2.129053405795092E+08, -9.653627631439418E+05,
2461435.500000000, A.D. 2027-Jan-30 00:00:00.0000, -4.130885114575626E+08, 2.032275138820111E+08, -8.218446604547799E+05,
2461442.500000000, A.D. 2027-Feb-06 00:00:00.0000, -4.167694753298138E+08, 1.934488195585553E+08, -6.779072810371816E+05,
2461449.500000000, A.D. 2027-Feb-13 00:00:00.0000, -4.202420012794363E+08, 1.835735539778304E+08, -5.336209020089433E+05,
2461456.500000000, A.D. 2027-Feb-20 00:00:00.0000, -4.235031180882449E+08, 1.736061209327509E+08, -3.890566741295457E+05,
2461463.500000000, A.D. 2027-Feb-27 00:00:00.0000, -4.265499436433569E+08, 1.635510296740883E+08, -2.442864790943339E+05,
2461470.500000000, A.D. 2027-Mar-06 00:00:00.0000, -4.293796888158343E+08, 1.534128920700831E+08, -9.938304783885181E+04,
2461477.500000000, A.D. 2027-Mar-13 00:00:00.0000, -4.319896607287056E+08, 1.431964209338236E+08, 4.557997444009036E+04,
2461484.500000000, A.D. 2027-Mar-20 00:00:00.0000, -4.343772665373694E+08, 1.329064286769078E+08, 1.905280516696051E+05,
2461491.500000000, A.D. 2027-Mar-27 00:00:00.0000, -4.365400175137284E+08, 1.225478257353299E+08, 3.353858051069304E+05,
2461498.500000000, A.D. 2027-Apr-03 00:00:00.0000, -4.384755332233915E+08, 1.121256187151446E+08, 4.800770638055801E+05,
2461505.500000000, A.D. 2027-Apr-10 00:00:00.0000, -4.401815457264831E+08, 1.016449082765792E+08, 6.245249136047214E+05,
2461512.500000000, A.D. 2027-Apr-17 00:00:00.0000, -4.416559037713976E+08, 9.111088673851281E+07, 7.686517414433062E+05,
2461519.500000000, A.D. 2027-Apr-24 00:00:00.0000, -4.428965768931053E+08, 8.052883533804066E+07, 9.123792626535036E+05,
2461526.500000000, A.D. 2027-May-01 00:00:00.0000, -4.439016591064093E+08, 6.990412117033848E+07, 1.055628506041728E+06,
2461533.500000000, A.D. 2027-May-08 00:00:00.0000, -4.446693718759023E+08, 5.924219455492794E+07, 1.198319789758768E+06,
2461540.500000000, A.D. 2027-May-15 00:00:00.0000, -4.451980678483168E+08, 4.854858777945007E+07, 1.340372903155863E+06,
2461547.500000000, A.D. 2027-May-22 00:00:00.0000, -4.454862369011616E+08, 3.782891262757122E+07, 1.481707426127173E+06,
2461554.500000000, A.D. 2027-May-29 00:00:00.0000, -4.455325111416166E+08, 2.708885522312244E+07, 1.622242758134719E+06,
2461561.500000000, A.D. 2027-Jun-05 00:00:00.0000, -4.453356679572376E+08, 1.633417132326921E+07, 1.761898031967649E+06,
2461568.500000000, A.D. 2027-Jun-12 00:00:00.0000, -4.448946331119208E+08, 5.570682492076298E+06, 1.900592131796635E+06,
2461575.500000000, A.D. 2027-Jun-19 00:00:00.0000, -4.442084842065606E+08, -5.195727780383868E+06, 2.038243769404214E+06,
2461582.500000000, A.D. 2027-Jun-26 00:00:00.0000, -4.432764542137906E+08, -1.595911827251671E+07, 2.174771571611638E+06,
2461589.500000000, A.D. 2027-Jul-03 00:00:00.0000, -4.420979349424591E+08, -2.671349452765765E+07, 2.310094167601648E+06,
2461596.500000000, A.D. 2027-Jul-10 00:00:00.0000, -4.406724803822278E+08, -3.745281363990252E+07, 2.444130273644686E+06,
2461603.500000000, A.D. 2027-Jul-17 00:00:00.0000, -4.389998098791764E+08, -4.817098936369703E+07, 2.576798768879911E+06,
2461610.500000000, A.D. 2027-Jul-24 00:00:00.0000, -4.370798109733705E+08, -5.886189760470270E+07, 2.708018742802300E+06,
2461617.500000000, A.D. 2027-Jul-31 00:00:00.0000, -4.349125414744034E+08, -6.951938205022220E+07, 2.837709496075612E+06,
2461624.500000000, A.D. 2027-Aug-07 00:00:00.0000, -4.324982309629346E+08, -8.013725878048556E+07, 2.965790607246581E+06,
2461631.500000000, A.D. 2027-Aug-14 00:00:00.0000, -4.298372840071237E+08, -9.070932010692315E+07, 3.092182255588599E+06,
2461638.500000000, A.D. 2027-Aug-21 00:00:00.0000, -4.269302844658693E+08, -1.012293409938907E+08, 3.216805468141884E+06,
2461645.500000000, A.D. 2027-Aug-28 00:00:00.0000, -4.237779974388481E+08, -1.116910868503704E+08, 3.339582074404962E+06,
2461652.500000000, A.D. 2027-Sep-04 00:00:00.0000, -4.203813700332181E+08, -1.220883201769365E+08, 3.460434681407504E+06,
2461659.500000000, A.D. 2027-Sep-11 00:00:00.0000, -4.167415323301925E+08, -1.324148067169685E+08, 3.579286742794439E+06,
2461666.500000000, A.D. 2027-Sep-18 00:00:00.0000, -4.128597984076138E+08, -1.426643217496290E+08, 3.696062656093031E+06,
2461673.500000000, A.D. 2027-Sep-25 00:00:00.0000, -4.087376671795421E+08, -1.528306565882572E+08, 3.810687860391319E+06,
2461680.500000000, A.D. 2027-Oct-02 00:00:00.0000, -4.043768229674028E+08, -1.629076252421966E+08, 3.923088929401189E+06,
2461687.500000000, A.D. 2027-Oct-09 00:00:00.0000, -3.997791357707831E+08, -1.728890712328204E+08, 4.033193656998053E+06,
2461694.500000000, A.D. 2027-Oct-16 00:00:00.0000, -3.949466611678559E+08, -1.827688746051952E+08, 4.140931124384709E+06,
2461701.500000000, A.D. 2027-Oct-23 00:00:00.0000, -3.898816395813711E+08, -1.925409591266086E+08, 4.246231724022731E+06,
2461708.500000000, A.D. 2027-Oct-30 00:00:00.0000, -3.845864945325946E+08, -2.021992990452913E+08, 4.349027155415744E+06,
2461715.500000000, A.D. 2027-Nov-06 00:00:00.0000, -3.790638310434591E+08, -2.117379242633419E+08, 4.449250591324687E+06,
2461722.500000000, A.D. 2027-Nov-13 00:00:00.0000, -3.733164361692421E+08, -2.211509259823696E+08, 4.546837026491687E+06,
2461729.500000000, A.D. 2027-Nov-20 00:00:00.0000, -3.673472787589666E+08, -2.304324649907705E+08, 4.641723363789052E+06,
2461736.500000000, A.D. 2027-Nov-27 00:00:00.0000, -3.611595068263789E+08, -2.395767796100069E+08, 4.733848331638575E+06,
2461743.500000000, A.D. 2027-Dec-04 00:00:00.0000, -3.547564445546987E+08, -2.485781923665164E+08, 4.823152492983416E+06,
2461750.500000000, A.D. 2027-Dec-11 00:00:00.0000, -3.481415894854704E+08, -2.574311163344838E+08, 4.909578317378074E+06,
2461757.500000000, A.D. 2027-Dec-18 00:00:00.0000, -3.413186096182493E+08, -2.661300614711895E+08, 4.993070262995228E+06,
2461764.500000000, A.D. 2027-Dec-25 00:00:00.0000, -3.342913402732947E+08, -2.746696409301989E+08, 5.073574854210377E+06,
2461771.500000000, A.D. 2028-Jan-01 00:00:00.0000, -3.270637806816882E+08, -2.830445773206004E+08, 5.151040752061650E+06,
$$EOE